[{"OBJECT_NAME":"ONEWEB-0421","OBJECT_ID":"2021-132AD","EPOCH":"2025-11-07T05:26:27.702528","MEAN_MOTION":13.18686125,"ECCENTRICITY":0.00016733,"INCLINATION":87.9223,"RA_OF_ASC_NODE":19.5401,"ARG_OF_PERICENTER":110.0465,"MEAN_ANOMALY":250.0848,"EPHEMERIS_TYPE":0,"CLASSIFICATION_TYPE":"U","NORAD_CAT_ID":50496,"ELEMENT_SET_NO":999,"REV_AT_EPOCH":19236,"BSTAR":0.00023404746,"MEAN_MOTION_DOT":1.05e-6,"MEAN_MOTION_DDOT":0},{"OBJECT_NAME":"ONEWEB-0424","OBJECT_ID":"2021-132AE","EPOCH":"2025-11-07T04:29:27.465216","MEAN_MOTION":13.18686819,"ECCENTRICITY":0.0001989,"INCLINATION":87.9226,"RA_OF_ASC_NODE":19.5438,"ARG_OF_PERICENTER":89.5702,"MEAN_ANOMALY":270.5658,"EPHEMERIS_TYPE":0,"CLASSIFICATION_TYPE":"U","NORAD_CAT_ID":50497,"ELEMENT_SET_NO":999,"REV_AT_EPOCH":19238,"BSTAR":0.00015558557,"MEAN_MOTION_DOT":7.4e-7,"MEAN_MOTION_DDOT":0},{"OBJECT_NAME":"ONEWEB-0426","OBJECT_ID":"2021-132AF","EPOCH":"2025-11-07T05:21:41.696064","MEAN_MOTION":13.18687859,"ECCENTRICITY":0.00011836,"INCLINATION":87.9221,"RA_OF_ASC_NODE":19.5267,"ARG_OF_PERICENTER":109.205,"MEAN_ANOMALY":250.921,"EPHEMERIS_TYPE":0,"CLASSIFICATION_TYPE":"U","NORAD_CAT_ID":50498,"ELEMENT_SET_NO":999,"REV_AT_EPOCH":19233,"BSTAR":0.00014772958,"MEAN_MOTION_DOT":7.1e-7,"MEAN_MOTION_DDOT":0},{"OBJECT_NAME":"ONEWEB-0427","OBJECT_ID":"2021-132AG","EPOCH":"2025-11-07T04:27:03.320640","MEAN_MOTION":13.18687587,"ECCENTRICITY":0.00016671,"INCLINATION":87.9227,"RA_OF_ASC_NODE":19.5237,"ARG_OF_PERICENTER":95.2107,"MEAN_ANOMALY":264.9215,"EPHEMERIS_TYPE":0,"CLASSIFICATION_TYPE":"U","NORAD_CAT_ID":50499,"ELEMENT_SET_NO":999,"REV_AT_EPOCH":19235,"BSTAR":0.00015251832,"MEAN_MOTION_DOT":7.3e-7,"MEAN_MOTION_DDOT":0},{"OBJECT_NAME":"ONEWEB-0429","OBJECT_ID":"2021-132AH","EPOCH":"2025-11-07T05:57:20.183328","MEAN_MOTION":13.18686568,"ECCENTRICITY":0.00019653,"INCLINATION":87.9226,"RA_OF_ASC_NODE":19.5427,"ARG_OF_PERICENTER":101.7774,"MEAN_ANOMALY":258.3579,"EPHEMERIS_TYPE":0,"CLASSIFICATION_TYPE":"U","NORAD_CAT_ID":50500,"ELEMENT_SET_NO":999,"REV_AT_EPOCH":19233,"BSTAR":-3.3360603e-5,"MEAN_MOTION_DOT":0,"MEAN_MOTION_DDOT":0},{"OBJECT_NAME":"ONEWEB-0430","OBJECT_ID":"2021-132AJ","EPOCH":"2025-11-07T05:40:42.420576","MEAN_MOTION":13.18687525,"ECCENTRICITY":0.00020955,"INCLINATION":87.9225,"RA_OF_ASC_NODE":19.5393,"ARG_OF_PERICENTER":95.6238,"MEAN_ANOMALY":264.5133,"EPHEMERIS_TYPE":0,"CLASSIFICATION_TYPE":"U","NORAD_CAT_ID":50501,"ELEMENT_SET_NO":999,"REV_AT_EPOCH":19237,"BSTAR":-7.0391838e-5,"MEAN_MOTION_DOT":-1.5e-7,"MEAN_MOTION_DDOT":0},{"OBJECT_NAME":"ONEWEB-0432","OBJECT_ID":"2021-132AK","EPOCH":"2025-11-07T06:26:14.976960","MEAN_MOTION":13.18672629,"ECCENTRICITY":0.00017315,"INCLINATION":87.9222,"RA_OF_ASC_NODE":19.5075,"ARG_OF_PERICENTER":70.229,"MEAN_ANOMALY":289.9028,"EPHEMERIS_TYPE":0,"CLASSIFICATION_TYPE":"U","NORAD_CAT_ID":50502,"ELEMENT_SET_NO":999,"REV_AT_EPOCH":19233,"BSTAR":-3.0035182e-5,"MEAN_MOTION_DOT":1.0e-8,"MEAN_MOTION_DDOT":0},{"OBJECT_NAME":"ONEWEB-0440","OBJECT_ID":"2021-132AL","EPOCH":"2025-11-07T06:09:12.974688","MEAN_MOTION":13.18686795,"ECCENTRICITY":0.00018723,"INCLINATION":87.9227,"RA_OF_ASC_NODE":19.5263,"ARG_OF_PERICENTER":112.7787,"MEAN_ANOMALY":247.3543,"EPHEMERIS_TYPE":0,"CLASSIFICATION_TYPE":"U","NORAD_CAT_ID":50503,"ELEMENT_SET_NO":999,"REV_AT_EPOCH":19232,"BSTAR":1.3248506e-5,"MEAN_MOTION_DOT":1.8e-7,"MEAN_MOTION_DDOT":0},{"OBJECT_NAME":"ONEWEB-0450","OBJECT_ID":"2021-132AM","EPOCH":"2025-11-07T05:59:54.468672","MEAN_MOTION":13.18684332,"ECCENTRICITY":0.00020953,"INCLINATION":87.9224,"RA_OF_ASC_NODE":19.5509,"ARG_OF_PERICENTER":101.3712,"MEAN_ANOMALY":258.7655,"EPHEMERIS_TYPE":0,"CLASSIFICATION_TYPE":"U","NORAD_CAT_ID":50504,"ELEMENT_SET_NO":999,"REV_AT_EPOCH":19235,"BSTAR":-0.00011777728,"MEAN_MOTION_DOT":-3.4e-7,"MEAN_MOTION_DDOT":0},{"OBJECT_NAME":"ONEWEB-0410","OBJECT_ID":"2022-012A","EPOCH":"2025-11-07T06:08:25.397664","MEAN_MOTION":13.17651628,"ECCENTRICITY":2.221e-5,"INCLINATION":87.9134,"RA_OF_ASC_NODE":49.9719,"ARG_OF_PERICENTER":28.1356,"MEAN_ANOMALY":331.9788,"EPHEMERIS_TYPE":0,"CLASSIFICATION_TYPE":"U","NORAD_CAT_ID":51622,"ELEMENT_SET_NO":999,"REV_AT_EPOCH":18447,"BSTAR":-0.00014062008,"MEAN_MOTION_DOT":-4.2e-7,"MEAN_MOTION_DDOT":0},{"OBJECT_NAME":"ONEWEB-0411","OBJECT_ID":"2022-012B","EPOCH":"2025-11-07T06:30:00.353952","MEAN_MOTION":13.10375005,"ECCENTRICITY":0.00020375,"INCLINATION":87.8788,"RA_OF_ASC_NODE":80.504,"ARG_OF_PERICENTER":88.7292,"MEAN_ANOMALY":271.4069,"EPHEMERIS_TYPE":0,"CLASSIFICATION_TYPE":"U","NORAD_CAT_ID":51623,"ELEMENT_SET_NO":999,"REV_AT_EPOCH":18022,"BSTAR":0.001846544,"MEAN_MOTION_DOT":6.57e-6,"MEAN_MOTION_DDOT":0},{"OBJECT_NAME":"ONEWEB-0415","OBJECT_ID":"2022-012C","EPOCH":"2025-11-07T06:25:13.318464","MEAN_MOTION":13.10376319,"ECCENTRICITY":0.00017886,"INCLINATION":87.8792,"RA_OF_ASC_NODE":80.5069,"ARG_OF_PERICENTER":91.6009,"MEAN_ANOMALY":268.5323,"EPHEMERIS_TYPE":0,"CLASSIFICATION_TYPE":"U","NORAD_CAT_ID":51624,"ELEMENT_SET_NO":999,"REV_AT_EPOCH":18022,"BSTAR":0.0016211178,"MEAN_MOTION_DOT":5.79e-6,"MEAN_MOTION_DDOT":0},{"OBJECT_NAME":"ONEWEB-0416","OBJECT_ID":"2022-012D","EPOCH":"2025-11-07T06:41:57.358176","MEAN_MOTION":13.10373291,"ECCENTRICITY":0.00015322,"INCLINATION":87.8786,"RA_OF_ASC_NODE":80.5252,"ARG_OF_PERICENTER":95.7257,"MEAN_ANOMALY":264.4045,"EPHEMERIS_TYPE":0,"CLASSIFICATION_TYPE":"U","NORAD_CAT_ID":51625,"ELEMENT_SET_NO":999,"REV_AT_EPOCH":18026,"BSTAR":0.0019983258,"MEAN_MOTION_DOT":7.1e-6,"MEAN_MOTION_DDOT":0},{"OBJECT_NAME":"ONEWEB-0422","OBJECT_ID":"2022-012E","EPOCH":"2025-11-07T06:23:00.907008","MEAN_MOTION":13.17650369,"ECCENTRICITY":0.00022385,"INCLINATION":87.9133,"RA_OF_ASC_NODE":49.9742,"ARG_OF_PERICENTER":116.0264,"MEAN_ANOMALY":244.1098,"EPHEMERIS_TYPE":0,"CLASSIFICATION_TYPE":"U","NORAD_CAT_ID":51626,"ELEMENT_SET_NO":999,"REV_AT_EPOCH":18458,"BSTAR":0.00024508085,"MEAN_MOTION_DOT":1.08e-6,"MEAN_MOTION_DDOT":0},{"OBJECT_NAME":"ONEWEB-0423","OBJECT_ID":"2022-012F","EPOCH":"2025-11-07T06:13:17.748480","MEAN_MOTION":13.17649983,"ECCENTRICITY":0.00016845,"INCLINATION":87.9136,"RA_OF_ASC_NODE":49.9857,"ARG_OF_PERICENTER":106.2977,"MEAN_ANOMALY":253.834,"EPHEMERIS_TYPE":0,"CLASSIFICATION_TYPE":"U","NORAD_CAT_ID":51627,"ELEMENT_SET_NO":999,"REV_AT_EPOCH":18447,"BSTAR":0.00022411411,"MEAN_MOTION_DOT":1.0e-6,"MEAN_MOTION_DDOT":0},{"OBJECT_NAME":"ONEWEB-0425","OBJECT_ID":"2022-012G","EPOCH":"2025-11-07T06:56:16.871424","MEAN_MOTION":13.10371799,"ECCENTRICITY":0.00012206,"INCLINATION":87.8791,"RA_OF_ASC_NODE":80.493,"ARG_OF_PERICENTER":99.9885,"MEAN_ANOMALY":260.138,"EPHEMERIS_TYPE":0,"CLASSIFICATION_TYPE":"U","NORAD_CAT_ID":51628,"ELEMENT_SET_NO":999,"REV_AT_EPOCH":18026,"BSTAR":0.0010477957,"MEAN_MOTION_DOT":3.78e-6,"MEAN_MOTION_DDOT":0},{"OBJECT_NAME":"ONEWEB-0428","OBJECT_ID":"2022-012H","EPOCH":"2025-11-07T06:27:36.952416","MEAN_MOTION":13.10375307,"ECCENTRICITY":0.00016977,"INCLINATION":87.8788,"RA_OF_ASC_NODE":80.5171,"ARG_OF_PERICENTER":100.886,"MEAN_ANOMALY":259.2458,"EPHEMERIS_TYPE":0,"CLASSIFICATION_TYPE":"U","NORAD_CAT_ID":51629,"ELEMENT_SET_NO":999,"REV_AT_EPOCH":18022,"BSTAR":0.0016050534,"MEAN_MOTION_DOT":5.73e-6,"MEAN_MOTION_DDOT":0}]
