ONEWEB-0421             
1 50496U 21132AD  25311.22670952  .00000105  00000+0  23405-3 0  9990
2 50496  87.9223  19.5401 0001673 110.0465 250.0848 13.18686125192360
ONEWEB-0424             
1 50497U 21132AE  25311.18712344  .00000074  00000+0  15559-3 0  9994
2 50497  87.9226  19.5438 0001989  89.5702 270.5658 13.18686819192386
ONEWEB-0426             
1 50498U 21132AF  25311.22339926  .00000071  00000+0  14773-3 0  9995
2 50498  87.9221  19.5267 0001183 109.2050 250.9210 13.18687859192330
ONEWEB-0427             
1 50499U 21132AG  25311.18545510  .00000073  00000+0  15252-3 0  9994
2 50499  87.9227  19.5237 0001667  95.2107 264.9215 13.18687587192358
ONEWEB-0429             
1 50500U 21132AH  25311.24815027  .00000000  00000+0 -33361-4 0  9990
2 50500  87.9226  19.5427 0001965 101.7774 258.3579 13.18686568192331
ONEWEB-0430             
1 50501U 21132AJ  25311.23660209 -.00000015  00000+0 -70392-4 0  9992
2 50501  87.9225  19.5393 0002095  95.6238 264.5133 13.18687525192377
ONEWEB-0432             
1 50502U 21132AK  25311.26822890  .00000001  00000+0 -30035-4 0  9996
2 50502  87.9222  19.5075 0001731  70.2290 289.9028 13.18672629192334
ONEWEB-0440             
1 50503U 21132AL  25311.25640017  .00000018  00000+0  13249-4 0  9990
2 50503  87.9227  19.5263 0001872 112.7787 247.3543 13.18686795192326
ONEWEB-0450             
1 50504U 21132AM  25311.24993598 -.00000034  00000+0 -11778-3 0  9999
2 50504  87.9224  19.5509 0002095 101.3712 258.7655 13.18684332192355
ONEWEB-0410             
1 51622U 22012A   25311.25584951 -.00000042  00000+0 -14062-3 0  9997
2 51622  87.9134  49.9719 0000222  28.1356 331.9788 13.17651628184473
ONEWEB-0411             
1 51623U 22012B   25311.27083743  .00000657  00000+0  18465-2 0  9993
2 51623  87.8788  80.5040 0002037  88.7292 271.4069 13.10375005180227
ONEWEB-0415             
1 51624U 22012C   25311.26751526  .00000579  00000+0  16211-2 0  9994
2 51624  87.8792  80.5069 0001788  91.6009 268.5323 13.10376319180224
ONEWEB-0416             
1 51625U 22012D   25311.27913609  .00000710  00000+0  19983-2 0  9994
2 51625  87.8786  80.5252 0001532  95.7257 264.4045 13.10373291180265
ONEWEB-0422             
1 51626U 22012E   25311.26598272  .00000108  00000+0  24508-3 0  9990
2 51626  87.9133  49.9742 0002238 116.0264 244.1098 13.17650369184588
ONEWEB-0423             
1 51627U 22012F   25311.25923320  .00000100  00000+0  22411-3 0  9999
2 51627  87.9136  49.9857 0001684 106.2977 253.8340 13.17649983184470
ONEWEB-0425             
1 51628U 22012G   25311.28908416  .00000378  00000+0  10478-2 0  9998
2 51628  87.8791  80.4930 0001220  99.9885 260.1380 13.10371799180269
ONEWEB-0428             
1 51629U 22012H   25311.26917769  .00000573  00000+0  16051-2 0  9998
2 51629  87.8788  80.5171 0001697 100.8860 259.2458 13.10375307180227
